$$SOE
2460728.500000000, A.D. 2025-Feb-22 00:00:00.0000, 3.066326952499233E+09, 5.896330955125035E+09, -1.116145819210200E+08,
2460735.500000000, A.D. 2025-Mar-01 00:00:00.0000, 3.063946834537500E+09, 5.897505013450363E+09, -1.113979604061491E+08,
2460742.500000000, A.D. 2025-Mar-08 00:00:00.0000, 3.061566205947152E+09, 5.898678006050697E+09, -1.111813202894168E+08,
2460749.500000000, A.D. 2025-Mar-15 00:00:00.0000, 3.059185071530001E+09, 5.899849934703917E+09, -1.109646619226267E+08,
2460756.500000000, A.D. 2025-Mar-22 00:00:00.0000, 3.056803434917301E+09, 5.901020803330627E+09, -1.107479854091043E+08,
2460763.500000000, A.D. 2025-Mar-29 00:00:00.0000, 3.054421297708669E+09, 5.902190616162033E+09, -1.105312906685655E+08,
2460770.500000000, A.D. 2025-Apr-05 00:00:00.0000, 3.052038660305590E+09, 5.903359376791514E+09, -1.103145775843987E+08,
2460777.500000000, A.D. 2025-Apr-12 00:00:00.0000, 3.049655522513546E+09, 5.904527088214144E+09, -1.100978460485227E+08,
2460784.500000000, A.D. 2025-Apr-19 00:00:00.0000, 3.047271883725565E+09, 5.905693752973048E+09, -1.098810959589553E+08,
2460791.500000000, A.D. 2025-Apr-26 00:00:00.0000, 3.044887742958859E+09, 5.906859373209916E+09, -1.096643272118592E+08,
2460798.500000000, A.D. 2025-May-03 00:00:00.0000, 3.042503098858222E+09, 5.908023950639248E+09, -1.094475396971681E+08,
2460805.500000000, A.D. 2025-May-10 00:00:00.0000, 3.040117949694777E+09, 5.909187486455311E+09, -1.092307332998610E+08,
2460812.500000000, A.D. 2025-May-17 00:00:00.0000, 3.037732293396809E+09, 5.910349981131131E+09, -1.090139079137685E+08,
2460819.500000000, A.D. 2025-May-24 00:00:00.0000, 3.035346127786602E+09, 5.911511434055319E+09, -1.087970634883728E+08,
2460826.500000000, A.D. 2025-May-31 00:00:00.0000, 3.032959451441050E+09, 5.912671843317975E+09, -1.085802001216002E+08,
2460833.500000000, A.D. 2025-Jun-07 00:00:00.0000, 3.030572264775107E+09, 5.913831206850663E+09, -1.083633180633469E+08,
2460840.500000000, A.D. 2025-Jun-14 00:00:00.0000, 3.028184568983521E+09, 5.914989524253828E+09, -1.081464174673946E+08,
2460847.500000000, A.D. 2025-Jun-21 00:00:00.0000, 3.025796364057621E+09, 5.916146796040461E+09, -1.079294982706103E+08,
2460854.500000000, A.D. 2025-Jun-28 00:00:00.0000, 3.023407649005342E+09, 5.917303022060883E+09, -1.077125603421187E+08,
2460861.500000000, A.D. 2025-Jul-05 00:00:00.0000, 3.021018422757780E+09, 5.918458201265256E+09, -1.074956035870452E+08,
2460868.500000000, A.D. 2025-Jul-12 00:00:00.0000, 3.018628684571274E+09, 5.919612331998651E+09, -1.072786279613609E+08,
2460875.500000000, A.D. 2025-Jul-19 00:00:00.0000, 3.016238434114590E+09, 5.920765412253743E+09, -1.070616334621272E+08,
2460882.500000000, A.D. 2025-Jul-26 00:00:00.0000, 3.013847671451109E+09, 5.921917439824720E+09, -1.068446201169512E+08,
2460889.500000000, A.D. 2025-Aug-02 00:00:00.0000, 3.011456396981459E+09, 5.923068412384208E+09, -1.066275879767518E+08,
2460896.500000000, A.D. 2025-Aug-09 00:00:00.0000, 3.009064611369951E+09, 5.924218327468811E+09, -1.064105371150529E+08,
2460903.500000000, A.D. 2025-Aug-16 00:00:00.0000, 3.006672315531807E+09, 5.925367182310308E+09, -1.061934676458478E+08,
2460910.500000000, A.D. 2025-Aug-23 00:00:00.0000, 3.004279510973772E+09, 5.926514973529272E+09, -1.059763797853122E+08,
2460917.500000000, A.D. 2025-Aug-30 00:00:00.0000, 3.001886200817086E+09, 5.927661697405380E+09, -1.057592739289634E+08,
2460924.500000000, A.D. 2025-Sep-06 00:00:00.0000, 2.999492390084633E+09, 5.928807351724897E+09, -1.055421505321889E+08,
2460931.500000000, A.D. 2025-Sep-13 00:00:00.0000, 2.997098083581572E+09, 5.929951936722584E+09, -1.053250098435593E+08,
2460938.500000000, A.D. 2025-Sep-20 00:00:00.0000, 2.994703284642638E+09, 5.931095453473791E+09, -1.051078519252806E+08,
2460945.500000000, A.D. 2025-Sep-27 00:00:00.0000, 2.992307995804682E+09, 5.932237902848444E+09, -1.048906768033800E+08,
2460952.500000000, A.D. 2025-Oct-04 00:00:00.0000, 2.989912219387747E+09, 5.933379285566335E+09, -1.046734845184100E+08,
2460959.500000000, A.D. 2025-Oct-11 00:00:00.0000, 2.987515957611034E+09, 5.934519602410911E+09, -1.044562751193454E+08,
2460966.500000000, A.D. 2025-Oct-18 00:00:00.0000, 2.985119212527431E+09, 5.935658854327382E+09, -1.042390486491022E+08,
2460973.500000000, A.D. 2025-Oct-25 00:00:00.0000, 2.982721985916101E+09, 5.936797042416524E+09, -1.040218051335833E+08,
2460980.500000000, A.D. 2025-Nov-01 00:00:00.0000, 2.980324279172590E+09, 5.937934167840020E+09, -1.038045445767207E+08,
2460987.500000000, A.D. 2025-Nov-08 00:00:00.0000, 2.977926093230905E+09, 5.939070231606416E+09, -1.035872669674010E+08,
2460994.500000000, A.D. 2025-Nov-15 00:00:00.0000, 2.975527428665416E+09, 5.940205234179589E+09, -1.033699723168187E+08,
2461001.500000000, A.D. 2025-Nov-22 00:00:00.0000, 2.973128286375197E+09, 5.941339175130296E+09, -1.031526607454150E+08,
2461008.500000000, A.D. 2025-Nov-29 00:00:00.0000, 2.970728668697546E+09, 5.942472053966206E+09, -1.029353325128183E+08,
2461015.500000000, A.D. 2025-Dec-06 00:00:00.0000, 2.968328578673188E+09, 5.943603872004853E+09, -1.027179877932050E+08,
2461022.500000000, A.D. 2025-Dec-13 00:00:00.0000, 2.965928017896823E+09, 5.944734631919476E+09, -1.025006265114560E+08,
2461029.500000000, A.D. 2025-Dec-20 00:00:00.0000, 2.963526986446124E+09, 5.945864335981313E+09, -1.022832484770133E+08,
2461036.500000000, A.D. 2025-Dec-27 00:00:00.0000, 2.961125483815392E+09, 5.946992985590039E+09, -1.020658535052307E+08,
2461043.500000000, A.D. 2026-Jan-03 00:00:00.0000, 2.958723509394642E+09, 5.948120581477364E+09, -1.018484414427238E+08,
2461050.500000000, A.D. 2026-Jan-10 00:00:00.0000, 2.956321062603883E+09, 5.949247123905561E+09, -1.016310121622250E+08,
2461057.500000000, A.D. 2026-Jan-17 00:00:00.0000, 2.953918142915140E+09, 5.950372612770190E+09, -1.014135655556974E+08,
2461064.500000000, A.D. 2026-Jan-24 00:00:00.0000, 2.951514749840178E+09, 5.951497047630528E+09, -1.011961015308955E+08,
2461071.500000000, A.D. 2026-Jan-31 00:00:00.0000, 2.949110882907381E+09, 5.952620427661282E+09, -1.009786200140486E+08,
2461078.500000000, A.D. 2026-Feb-07 00:00:00.0000, 2.946706541689281E+09, 5.953742751469123E+09, -1.007611209688601E+08,
2461085.500000000, A.D. 2026-Feb-14 00:00:00.0000, 2.944301726133826E+09, 5.954864016759640E+09, -1.005436044561899E+08,
2461092.500000000, A.D. 2026-Feb-21 00:00:00.0000, 2.941896437586919E+09, 5.955984220432549E+09, -1.003260707226918E+08,
2461099.500000000, A.D. 2026-Feb-28 00:00:00.0000, 2.939490679421417E+09, 5.957103360259234E+09, -1.001085201245725E+08,
2461106.500000000, A.D. 2026-Mar-07 00:00:00.0000, 2.937084455214017E+09, 5.958221436193009E+09, -9.989095285690737E+07,
2461113.500000000, A.D. 2026-Mar-14 00:00:00.0000, 2.934677767245751E+09, 5.959338448979503E+09, -9.967336893367481E+07,
2461120.500000000, A.D. 2026-Mar-21 00:00:00.0000, 2.932270617108971E+09, 5.960454398965240E+09, -9.945576834509730E+07,
2461127.500000000, A.D. 2026-Mar-28 00:00:00.0000, 2.929863006411423E+09, 5.961569286133112E+09, -9.923815112379408E+07,
2461134.500000000, A.D. 2026-Apr-04 00:00:00.0000, 2.927454936973692E+09, 5.962683110399056E+09, -9.902051734313011E+07,
2461141.500000000, A.D. 2026-Apr-11 00:00:00.0000, 2.925046410793951E+09, 5.963795871810028E+09, -9.880286710213375E+07,
2461148.500000000, A.D. 2026-Apr-18 00:00:00.0000, 2.922637429939397E+09, 5.964907570636501E+09, -9.858520051191878E+07,
2461155.500000000, A.D. 2026-Apr-25 00:00:00.0000, 2.920227996410459E+09, 5.966018207374249E+09, -9.836751768642282E+07,
2461162.500000000, A.D. 2026-May-02 00:00:00.0000, 2.917818112008791E+09, 5.967127782625731E+09, -9.814981874250126E+07,
2461169.500000000, A.D. 2026-May-09 00:00:00.0000, 2.915407778334048E+09, 5.968236296794880E+09, -9.793210382605863E+07,
2461176.500000000, A.D. 2026-May-16 00:00:00.0000, 2.912996997287739E+09, 5.969343749733676E+09, -9.771437318743277E+07,
2461183.500000000, A.D. 2026-May-23 00:00:00.0000, 2.910585772136314E+09, 5.970450141362878E+09, -9.749662722718525E+07,
2461190.500000000, A.D. 2026-May-30 00:00:00.0000, 2.908174107055220E+09, 5.971555473586534E+09, -9.727886629552913E+07,
2461197.500000000, A.D. 2026-Jun-06 00:00:00.0000, 2.905762004836723E+09, 5.972659750226712E+09, -9.706109048388863E+07,
2461204.500000000, A.D. 2026-Jun-13 00:00:00.0000, 2.903349466427526E+09, 5.973762975177440E+09, -9.684329972870016E+07,
2461211.500000000, A.D. 2026-Jun-20 00:00:00.0000, 2.900936491795156E+09, 5.974865151703966E+09, -9.662549394258165E+07,
2461218.500000000, A.D. 2026-Jun-27 00:00:00.0000, 2.898523080424760E+09, 5.975966282547547E+09, -9.640767304510212E+07,
2461225.500000000, A.D. 2026-Jul-04 00:00:00.0000, 2.896109231446207E+09, 5.977066370060867E+09, -9.618983695675969E+07,
2461232.500000000, A.D. 2026-Jul-11 00:00:00.0000, 2.893694943645394E+09, 5.978165416242268E+09, -9.597198559050918E+07,
2461239.500000000, A.D. 2026-Jul-18 00:00:00.0000, 2.891280215452483E+09, 5.979263422694565E+09, -9.575411884750795E+07,
2461246.500000000, A.D. 2026-Jul-25 00:00:00.0000, 2.888865044931472E+09, 5.980360390511225E+09, -9.553623661930966E+07,
2461253.500000000, A.D. 2026-Aug-01 00:00:00.0000, 2.886449429819187E+09, 5.981456320041891E+09, -9.531833880508208E+07,
2461260.500000000, A.D. 2026-Aug-08 00:00:00.0000, 2.884033367828518E+09, 5.982551210501407E+09, -9.510042536659145E+07,
2461267.500000000, A.D. 2026-Aug-15 00:00:00.0000, 2.881616857630886E+09, 5.983645059872907E+09, -9.488249642234302E+07,
2461274.500000000, A.D. 2026-Aug-22 00:00:00.0000, 2.879199899756759E+09, 5.984737866326368E+09, -9.466455221131086E+07,
2461281.500000000, A.D. 2026-Aug-29 00:00:00.0000, 2.876782495125045E+09, 5.985829629780080E+09, -9.444659282851005E+07,
2461288.500000000, A.D. 2026-Sep-05 00:00:00.0000, 2.874364643334848E+09, 5.986920350737034E+09, -9.422861816251349E+07,
2461295.500000000, A.D. 2026-Sep-12 00:00:00.0000, 2.871946343174442E+09, 5.988010028892066E+09, -9.401062805608201E+07,
$$EOE